JINJUSAT-1B             
1 63210U 25052A   26068.66363707  .00019955  00000+0  68430-3 0  9998
2 63210  97.4113 325.4613 0005550  82.1930 277.9941 15.30194857 54866
STARLINK-34131          
1 64182U 25113N   26068.35056292  .00033525  00000+0  11390-2 0  9990
2 64182  53.1583  92.6700 0001101  81.1900 278.9225 15.30199750 44973
